{
"type": "FeatureCollection",
"features": [
{
  "type": "Feature",
  "id": "node/148332300",
  "properties": {
    "ISO3166-1": "ES",
    "ISO3166-1:alpha2": "ES",
    "ISO3166-1:alpha3": "ESP",
    "ISO3166-1:numeric": "724",
    "alt_name:eo": "Hispanujo",
    "capital_city": "Madrid",
    "country_code_fips": "SP",
    "name": "España",
    "name:af": "Spanje",
    "name:ak": "Spain",
    "name:am": "ስፔን",
    "name:ar": "إسبانيا",
    "name:az": "İspaniya",
    "name:ba": "Испания",
    "name:be": "Іспанія",
    "name:bg": "Испания",
    "name:bm": "Esipaɲi",
    "name:bn": "স্পেন",
    "name:bo": "སི་པན།",
    "name:br": "Spagn",
    "name:bs": "Španija",
    "name:ca": "Espanya",
    "name:chr": "ᎠᏂᏍᏆᏂᏱ",
    "name:cs": "Španělsko",
    "name:cy": "Sbaen",
    "name:da": "Spanien",
    "name:de": "Spanien",
    "name:dz": "ཨིས་པེན",
    "name:ee": "Spania nutome",
    "name:el": "Ισπανία",
    "name:en": "Spain",
    "name:eo": "Hispanio",
    "name:es": "España",
    "name:et": "Hispaania",
    "name:eu": "Espainia",
    "name:fa": "اسپانیا",
    "name:ff": "Espaañ",
    "name:fi": "Espanja",
    "name:fo": "Spania",
    "name:fr": "Espagne",
    "name:fur": "Spagne",
    "name:fy": "Spanje",
    "name:ga": "An Spáinn",
    "name:gd": "An Spàinn",
    "name:gu": "સ્પેન",
    "name:gv": "Yn Spaainey",
    "name:ha": "Sipen",
    "name:haw": "Sepania",
    "name:he": "ספרד",
    "name:hi": "स्पेन",
    "name:hr": "Španjolska",
    "name:hsb": "Španiska",
    "name:hu": "Spanyolország",
    "name:hy": "Իսպանիա",
    "name:ia": "Espania",
    "name:id": "Spanyol",
    "name:io": "Hispania",
    "name:is": "Spánn",
    "name:it": "Spagna",
    "name:ja": "スペイン",
    "name:jbo": "sangu'e",
    "name:ka": "ესპანეთი",
    "name:kab": "Spenyul",
    "name:ki": "Hispania",
    "name:kk": "Испания",
    "name:kl": "Spania",
    "name:km": "អេស្ប៉ាញ",
    "name:kn": "ಸ್ಪೈನ್",
    "name:ko": "스페인",
    "name:ks": "سٕپین",
    "name:ksh": "Schpaanije",
    "name:ku": "Spanya",
    "name:kw": "Spayn",
    "name:la": "Hispania",
    "name:lb": "Spuenien",
    "name:lfn": "Espania",
    "name:lg": "Sipeyini",
    "name:ln": "Esipanye",
    "name:lo": "ສະເປນ",
    "name:lt": "Ispanija",
    "name:lv": "Spānija",
    "name:mg": "Espaina",
    "name:mi": "Pāniora",
    "name:mk": "Шпанија",
    "name:ml": "സ്പെയിൻ",
    "name:mn": "Испани",
    "name:mr": "स्पेन",
    "name:ms": "Sepanyol",
    "name:mt": "Spanja",
    "name:my": "စပိန်",
    "name:nb": "Spania",
    "name:nds": "Spanien",
    "name:ne": "स्पेन",
    "name:nl": "Spanje",
    "name:nn": "Spania",
    "name:no": "Spania",
    "name:or": "ସ୍ପେନ୍",
    "name:pl": "Hiszpania",
    "name:ps": "هسپانیه",
    "name:pt": "Espanha",
    "name:pt-BR": "Espanha",
    "name:rm": "Spagna",
    "name:rn": "Hisipaniya",
    "name:ro": "Spania",
    "name:ru": "Испания",
    "name:scn": "Spagna",
    "name:se": "Espánnja",
    "name:sg": "Espânye",
    "name:si": "ස්පාඤ්ඤය",
    "name:sk": "Španielsko",
    "name:sl": "Španija",
    "name:smn": "Espanja",
    "name:sms": "Espanja",
    "name:sn": "Spain",
    "name:so": "Isbeyn",
    "name:sq": "Spanjë",
    "name:sr": "Шпанија",
    "name:sv": "Spanien",
    "name:sw": "Hispania",
    "name:szl": "Szpanijŏ",
    "name:ta": "ஸ்பெயின்",
    "name:te": "స్పేన్",
    "name:tg": "Испания",
    "name:th": "ประเทศสเปน",
    "name:ti": "ስፔን",
    "name:tl": "Espanya",
    "name:to": "Sipeini",
    "name:tok": "ma Epanja",
    "name:tr": "İspanya",
    "name:tt": "Испания",
    "name:tzl": "Espain",
    "name:uk": "Іспанія",
    "name:ur": "ہسپانیہ",
    "name:vi": "Tây Ban Nha",
    "name:vo": "Spanyän",
    "name:yo": "Orílẹ́ède Sipani",
    "name:zh": "西班牙",
    "name:zh-Hant": "西班牙",
    "name:zh_pinyin": "Xībānyá",
    "name:zu": "i-Spain",
    "official_name": "Reino de España",
    "official_name:ar": "مملكة إسبانيا",
    "official_name:be": "Каралеўства Іспанія",
    "official_name:el": "Βασίλειο της Ισπανίας",
    "official_name:en": "Kingdom of Spain",
    "official_name:eo": "Hispana Reĝlando",
    "official_name:fa": "پادشاهی اسپانیا",
    "official_name:fr": "Royaume d’Espagne",
    "official_name:gd": "Rìoghachd na Spàinne",
    "official_name:id": "Kerajaan Spanyol",
    "official_name:lb": "Kinneksräich Spuenien",
    "official_name:lt": "Ispanijos Karalystė",
    "official_name:pl": "Królestwo Hiszpanii",
    "official_name:pt": "Reino de Espanha",
    "official_name:sk": "Španielske kráľovstvo",
    "official_name:sr": "Краљевина Шпанија",
    "official_name:sv": "Konungariket Spanien",
    "official_name:ur": "مملکت ہسپانیہ",
    "official_name:vi": "Vương quốc Tây Ban Nha",
    "old_name:ku": "Keyîtiya Spanyayê",
    "old_name:vi": "Y Pha Nho",
    "place": "country",
    "population": "46157822",
    "source:sqkm": "CIA World Factbook",
    "sqkm": "505370",
    "wikidata": "Q29",
    "wikipedia": "es:España",
    "id": "node/148332300"
  },
  "geometry": {
    "type": "Point",
    "coordinates": [
      -4.8379791,
      39.3260685
    ]
  }
},
{
  "type": "Feature",
  "id": "node/148874198",
  "properties": {
    "ISO3166-1": "AD",
    "ISO3166-1:alpha2": "AD",
    "ISO3166-1:alpha3": "AND",
    "ISO3166-1:numeric": "020",
    "alt_name:el": "Ανδόρα",
    "capital_city": "Andorra la Vella",
    "name": "Andorra",
    "name:ak": "Andora",
    "name:am": "አንዶራ",
    "name:ar": "أندورا",
    "name:be": "Андора",
    "name:be-tarask": "Андора",
    "name:bg": "Андора",
    "name:bm": "Andɔr",
    "name:bn": "এ্যান্ডোরা",
    "name:bo": "ཨེན་ཌོ་ར།",
    "name:br": "Andorra",
    "name:bs": "Andora",
    "name:ca": "Andorra",
    "name:chr": "ᎠᏂᏙᎳ",
    "name:ckb": "ئەندۆرا",
    "name:cs": "Andorra",
    "name:de": "Andorra",
    "name:dz": "ཨཱན་དོ་ར",
    "name:ee": "Andorra nutome",
    "name:el": "Ανδόρρα",
    "name:en": "Andorra",
    "name:eo": "Andoro",
    "name:es": "Andorra",
    "name:et": "Andorra",
    "name:fa": "آندورا",
    "name:ff": "Anndoora",
    "name:fi": "Andorra",
    "name:fr": "Andorre",
    "name:ga": "Andóra",
    "name:gu": "ઍંડોરા",
    "name:gv": "Andorra",
    "name:ha": "Andora",
    "name:haw": "‘Anakola",
    "name:he": "אנדורה",
    "name:hi": "अन्डोरा",
    "name:hr": "Andora",
    "name:hu": "Andorra",
    "name:hy": "Անդորրա",
    "name:ia": "Andorra",
    "name:id": "Andora",
    "name:io": "Andora",
    "name:is": "Andorra",
    "name:it": "Andorra",
    "name:ja": "アンドラ",
    "name:jbo": "andoras",
    "name:ka": "ანდორა",
    "name:kab": "Undura",
    "name:ki": "Andora",
    "name:kk": "Андорра",
    "name:km": "អង់ដូរ៉ា",
    "name:kn": "ಅಂಡೋರಾ",
    "name:ko": "안도라",
    "name:ks": "اٮ۪نڑورا",
    "name:ku": "Andorra",
    "name:kw": "Andorra",
    "name:lfn": "Andora",
    "name:lg": "Andora",
    "name:ln": "Andorɛ",
    "name:lo": "ອັນດໍລາ",
    "name:lt": "Andora",
    "name:lv": "Andora",
    "name:mk": "Андора",
    "name:ml": "അൻറോറ",
    "name:mn": "Андорра",
    "name:mr": "अँडोरा",
    "name:nds": "Andorra",
    "name:ne": "अन्डोर्रा",
    "name:nl": "Andorra",
    "name:no": "Andorra",
    "name:oc": "Andòrra",
    "name:or": "ଆଣ୍ଡୋରା",
    "name:pl": "Andora",
    "name:pt": "Andorra",
    "name:rn": "Andora",
    "name:ru": "Андорра",
    "name:sco": "Andorrae",
    "name:se": "Andorra",
    "name:sg": "Andôro",
    "name:si": "ඇන්ඩෝරාව",
    "name:sk": "Andorra",
    "name:sl": "Andora",
    "name:smn": "Andorra",
    "name:sms": "Andorr",
    "name:sn": "Andora",
    "name:so": "Andora",
    "name:sq": "Andorrë",
    "name:sr": "Андора",
    "name:sv": "Andorra",
    "name:sw": "Andora",
    "name:ta": "அன்டோரா",
    "name:te": "అన్డోరా",
    "name:tg": "Андорра",
    "name:th": "ประเทศอันดอร์รา",
    "name:ti": "አንዶራ",
    "name:to": "ʻEnitola",
    "name:tok": "ma Antola",
    "name:tt": "Андорра",
    "name:tzl": "Anduora",
    "name:uk": "Андора",
    "name:ur": "انڈورا",
    "name:uz": "Andorra",
    "name:vi": "Andora",
    "name:vo": "Landorän",
    "name:yo": "Orílẹ́ède Ààndórà",
    "name:zh": "安道尔 / 安道爾",
    "name:zh-Hans": "安道尔",
    "name:zh-Hant": "安道爾",
    "name:zh_pinyin": "Āndàoěr",
    "name:zu": "i-Andorra",
    "official_name": "Principat d'Andorra",
    "official_name:be": "Княства Андора",
    "official_name:be-tarask": "Княства Андора",
    "official_name:ckb": "میرنشینی ئەندۆرا",
    "official_name:cy": "Tywysogaeth Andorra",
    "official_name:de": "Fürstentum Andorra",
    "official_name:el": "Πριγκηπάτο της Ανδόρρας",
    "official_name:eo": "Andora Princlando",
    "official_name:et": "Andorra Vürstiriik",
    "official_name:fi": "Andorran ruhtinaskunta",
    "official_name:fr": "Principauté d'Andorre",
    "official_name:id": "Kepangeranan Andorra",
    "official_name:is": "Furstadæmið Andorra",
    "official_name:it": "Principato d'Andorra",
    "official_name:ku": "Mîritiya Andorrayê",
    "official_name:la": "Principatus Andorrae",
    "official_name:lt": "Andoros Kunigaikštystė",
    "official_name:lv": "Andoras Firstiste",
    "official_name:no": "Fyrstedømmet Andorra",
    "official_name:pt": "Principado de Andorra",
    "official_name:ru": "Княжество Андорра",
    "official_name:sk": "Andorrské kniežatstvo",
    "official_name:sr": "Кнежевина Андора",
    "official_name:sv": "Furstendömet Andorra",
    "official_name:vi": "Công quốc Andora",
    "official_name:zh": "安道尔公国 / 安道爾親王國",
    "official_name:zh-Hans": "安道尔公国",
    "official_name:zh-Hant": "安道爾親王國",
    "place": "country",
    "population": "83888",
    "source:name:oc": "ieo-bdtopoc",
    "source:population": "CIA World Factbook 2009",
    "source:sqkm": "CIA World Factbook",
    "sqkm": "468",
    "wikidata": "Q228",
    "wikipedia": "ca:Andorra",
    "id": "node/148874198"
  },
  "geometry": {
    "type": "Point",
    "coordinates": [
      1.5732033,
      42.5407167
    ]
  }
},
{
  "type": "Feature",
  "id": "node/1363947712",
  "properties": {
    "ISO3166-1": "FR",
    "ISO3166-1:alpha2": "FR",
    "ISO3166-1:alpha3": "FRA",
    "ISO3166-1:numeric": "250",
    "alt_name:eo": "Francujo",
    "capital_city": "Paris",
    "comment": "Please do not remove this point (used to best place and display the label for the country, but NOT its administrative capital in Paris)",
    "country_code_fips": "FR",
    "currency": "EUR",
    "default_language": "fr",
    "flag": "http://upload.wikimedia.org/wikipedia/commons/c/c3/Flag_of_France.svg",
    "int_name": "France",
    "name": "France",
    "name:ab": "Франциа",
    "name:ace": "Peurancih",
    "name:af": "Frankryk",
    "name:ak": "Frɛnkyeman",
    "name:am": "ፈረንሣይ",
    "name:an": "Francia",
    "name:ang": "Francland",
    "name:ar": "فرنسا",
    "name:arc": "ܦܪܢܣܐ",
    "name:arz": "فرنسا",
    "name:as": "ফ্ৰান্স",
    "name:ast": "Francia",
    "name:av": "Паранс",
    "name:ay": "Phransiya",
    "name:az": "Fransa",
    "name:ba": "Франция",
    "name:bar": "Frankreich",
    "name:bat-smg": "Prancūzėjė",
    "name:bcl": "Pransya",
    "name:be": "Францыя",
    "name:be-tarask": "Францыя",
    "name:bg": "Франция",
    "name:bh": "फ्रांस",
    "name:bi": "Franis",
    "name:bjn": "Parancis",
    "name:bm": "France",
    "name:bn": "ফ্রান্স",
    "name:bo": "ཧྥ་རན་སི།",
    "name:bpy": "ফ্রান্স",
    "name:br": "Bro-C'hall",
    "name:bs": "Francuska",
    "name:bug": "Perancis",
    "name:bxr": "Франци",
    "name:ca": "França",
    "name:cbk-zam": "Francia",
    "name:cdo": "Huák-guók",
    "name:ce": "Франци",
    "name:ceb": "Pransiya",
    "name:ch": "Francia",
    "name:chr": "ᎦᎸᏥᏱ",
    "name:chy": "France",
    "name:ckb": "فەڕەنسا",
    "name:co": "Francia",
    "name:crh": "Frenkistan",
    "name:cs": "Francie",
    "name:csb": "Francëjô",
    "name:cu": "Франкїꙗ",
    "name:cv": "Франци",
    "name:cy": "Ffrainc",
    "name:da": "Frankrig",
    "name:de": "Frankreich",
    "name:diq": "Fransa",
    "name:dsb": "Francojska",
    "name:dv": "ފަރަންސޭސިވިލާތް",
    "name:dz": "ཕརཱནསི་",
    "name:ee": "France",
    "name:el": "Γαλλία",
    "name:eml": "Franza",
    "name:en": "France",
    "name:eo": "Francio",
    "name:es": "Francia",
    "name:et": "Prantsusmaa",
    "name:eu": "Frantzia",
    "name:ext": "Fráncia",
    "name:fa": "فرانسه",
    "name:ff": "Faransi",
    "name:fi": "Ranska",
    "name:fo": "Frakland",
    "name:fr": "France",
    "name:frp": "France",
    "name:frr": "Frånkrik",
    "name:fur": "France",
    "name:fy": "Frankryk",
    "name:ga": "An Fhrainc",
    "name:gag": "Franțiya",
    "name:gan": "法國",
    "name:gd": "An Fhraing",
    "name:gl": "Francia",
    "name:gn": "Hyãsia",
    "name:gsw": "Frankreich",
    "name:gu": "ફ્રાન્સ",
    "name:gv": "Yn Rank",
    "name:ha": "Faransa",
    "name:hak": "Fap-koet",
    "name:haw": "Palani",
    "name:he": "צרפת",
    "name:hi": "फ़्रान्स",
    "name:hif": "France",
    "name:hr": "Francuska",
    "name:hsb": "Francoska",
    "name:ht": "Frans",
    "name:hu": "Franciaország",
    "name:hy": "Ֆրանսիա",
    "name:ia": "Francia",
    "name:id": "Perancis",
    "name:ie": "Francia",
    "name:ii": "ꃔꇩ",
    "name:ilo": "Pransia",
    "name:io": "Francia",
    "name:is": "Frakkland",
    "name:it": "Francia",
    "name:ja": "フランス",
    "name:jbo": "fasygu'e",
    "name:jv": "Prancis",
    "name:ka": "საფრანგეთი",
    "name:kaa": "Frantsiya",
    "name:kab": "Fransa",
    "name:kbd": "Фрэндж",
    "name:kg": "Fwalansa",
    "name:ki": "Ubaranja",
    "name:kk": "Франция",
    "name:kl": "Frankrigi",
    "name:km": "បារាំង",
    "name:kn": "ಫ್ರಾನ್ಸ್",
    "name:ko": "프랑스",
    "name:koi": "Франс",
    "name:krc": "Франция",
    "name:ks": "فرٛانس",
    "name:ksh": "Frankreich",
    "name:ku": "Fransa",
    "name:kv": "Франция",
    "name:kw": "Pow Frynk",
    "name:ky": "Франция",
    "name:la": "Francia",
    "name:lad": "Fransia",
    "name:lb": "Frankräich",
    "name:lez": "Франция",
    "name:lfn": "Frans",
    "name:lg": "Bufalansa",
    "name:li": "Frankriek",
    "name:lij": "Fransa",
    "name:lmo": "Frància",
    "name:ln": "Falansia",
    "name:lo": "ປະເທດຝະລັ່ງ",
    "name:lt": "Prancūzija",
    "name:ltg": "Praņceja",
    "name:lv": "Francija",
    "name:lzh": "法國",
    "name:mdf": "Кранцмастор",
    "name:mg": "Frantsa",
    "name:mhr": "Франций",
    "name:mi": "Wīwī",
    "name:min": "Parancih",
    "name:mk": "Франција",
    "name:ml": "ഫ്രാൻസ്",
    "name:mn": "Франц",
    "name:mo": "Франца",
    "name:mr": "फ्रान्स",
    "name:ms": "Perancis",
    "name:mt": "Franza",
    "name:mwl": "Fráncia",
    "name:my": "ပြင်သစ်နိုင်ငံ",
    "name:myv": "Франция Мастор",
    "name:mzn": "فرانسه",
    "name:na": "Prant",
    "name:nah": "Francia",
    "name:nan": "Hoat-kok",
    "name:nap": "Franza",
    "name:nds": "Frankriek",
    "name:nds-nl": "Frankriek",
    "name:ne": "फ्रान्स",
    "name:nl": "Frankrijk",
    "name:nn": "Frankrike",
    "name:no": "Frankrike",
    "name:nov": "Fransia",
    "name:nrm": "France",
    "name:nso": "Fora",
    "name:nv": "Dáághahii Dineʼé Bikéyah",
    "name:oc": "França",
    "name:om": "Firaansi",
    "name:or": "ଫ୍ରାନ୍ସ",
    "name:os": "Франц",
    "name:pa": "ਫ੍ਰਾਂਸ",
    "name:pag": "Fransia",
    "name:pam": "Pransiya",
    "name:pap": "Fransia",
    "name:pcd": "Franche",
    "name:pdc": "Frankreich",
    "name:pfl": "Frongraisch",
    "name:pi": "फ्रांस",
    "name:pih": "France",
    "name:pl": "Francja",
    "name:pms": "Fransa",
    "name:pnb": "فرانس",
    "name:pnt": "Γαλλία",
    "name:ps": "فرانسه",
    "name:pt": "França",
    "name:qu": "Ransiya",
    "name:rm": "Frantscha",
    "name:rmy": "Franchiya",
    "name:rn": "Francia",
    "name:ro": "Franța",
    "name:roa-tara": "Frange",
    "name:ru": "Франция",
    "name:rue": "Франція",
    "name:rw": "Ubufaransa",
    "name:sa": "फ्रान्सदेशः",
    "name:sah": "Франция",
    "name:sc": "Frantza",
    "name:scn": "Francia",
    "name:sco": "Fraunce",
    "name:sd": "فرانس",
    "name:se": "Frankriika",
    "name:sg": "Farânzi",
    "name:sh": "Francuska",
    "name:si": "ප්රංශය",
    "name:sk": "Francúzsko",
    "name:sl": "Francija",
    "name:sm": "Farani",
    "name:smn": "Ránská",
    "name:sms": "Franskkjânnam",
    "name:so": "Faransiiska",
    "name:sq": "Franca",
    "name:sr": "Француска",
    "name:srn": "Franskondre",
    "name:ss": "IFulansi",
    "name:st": "Fora",
    "name:stq": "Frankriek",
    "name:su": "Perancis",
    "name:sv": "Frankrike",
    "name:sw": "Ufaransa",
    "name:szl": "Francyjŏ",
    "name:ta": "பிரான்சு",
    "name:te": "ఫ్రాన్స్",
    "name:tet": "Fransa",
    "name:tg": "Фаронса",
    "name:th": "ประเทศฝรั่งเศส",
    "name:ti": "ፈረንሳይ",
    "name:tk": "Fransiýa",
    "name:tl": "Pransiya",
    "name:tn": "Fora",
    "name:to": "Falanisē",
    "name:tok": "ma Kanse",
    "name:tpi": "Frens",
    "name:tr": "Fransa",
    "name:ts": "Furhwa",
    "name:tt": "Франция",
    "name:ty": "Farāni",
    "name:tzl": "França",
    "name:udm": "Франция",
    "name:ug": "فرانسىيە",
    "name:uk": "Франція",
    "name:ur": "فرانس",
    "name:uz": "Fransiya",
    "name:vec": "Fransa",
    "name:vep": "Francii",
    "name:vi": "Pháp",
    "name:vls": "Vrankryk",
    "name:vo": "Fransän",
    "name:vro": "Prantsusmaa",
    "name:wa": "France",
    "name:war": "Fransya",
    "name:wo": "Faraas",
    "name:wuu": "法国",
    "name:xal": "Пранцсин Орн",
    "name:xmf": "საფრანგეთი",
    "name:yi": "פראנקרייך",
    "name:yo": "Fránsì",
    "name:yue": "法國",
    "name:za": "Fazgoz",
    "name:zea": "Frankriek",
    "name:zh": "法國/法国",
    "name:zh-Hans": "法国",
    "name:zh-Hant": "法國",
    "name:zh_pinyin": "Fǎguó",
    "name:zu": "IFulansi",
    "note": "position/rayon différents entre osm v#1 / wikipedia et le résultat obtenu en 46.603230136697235, 1.8885222004178486 . calcul a refaire",
    "note:population": "somme des populations de tous les territoires (départements, COM, etc)",
    "official_name": "République française",
    "official_name:ar": "الجمهورية الفرنسية",
    "official_name:azb": "فرانسه جومهوریتی",
    "official_name:be": "Рэспубліка Францыя",
    "official_name:be-tarask": "Рэспубліка Францыя",
    "official_name:br": "Republik Frañs",
    "official_name:ca": "República Francesa",
    "official_name:ckb": "کۆماری فەڕەنسا",
    "official_name:cs": "Francouzská republika",
    "official_name:el": "Γαλλική Δημοκρατία",
    "official_name:eo": "Franca Respubliko",
    "official_name:es": "República francesa",
    "official_name:et": "Prantsuse Vabariik",
    "official_name:eu": "Frantziako Errepublika",
    "official_name:fa": "جمهوری فرانسه",
    "official_name:fr": "République française",
    "official_name:gd": "Poblachd na Frainge",
    "official_name:id": "Republik Perancis",
    "official_name:it": "Repubblica francese",
    "official_name:ku": "Komara Fransayê",
    "official_name:lb": "Franséisch Republik",
    "official_name:lt": "Prancūzijos Respublika",
    "official_name:mo": "Република Франчезэ",
    "official_name:nl": "Franse Republiek",
    "official_name:ps": "د فرانسې جمهوریت",
    "official_name:pt": "República Francesa",
    "official_name:ru": "Французская Республика",
    "official_name:sk": "Francúzska republika",
    "official_name:sl": "Francoska republika",
    "official_name:sr": "Република Француска",
    "official_name:sv": "Republiken Frankrike",
    "official_name:ug": "فرانسىيە جۇمھۇرىيىتى",
    "official_name:ur": "جمہوریہ فرانس",
    "official_name:uz": "Fransiya Respublikasi",
    "official_name:vi": "Cộng hòa Pháp",
    "official_name:vls": "Fransche Republik",
    "official_name:zh": "法蘭西共和國/法兰西共和国",
    "official_name:zh-Hans": "法兰西共和国",
    "official_name:zh-Hant": "法蘭西共和國",
    "place": "country",
    "population": "67852556",
    "population:date": "2021-01-01",
    "source:name:oc": "ieo-bdtopoc",
    "source:population": "INSEE 2022",
    "sqkm": "643801",
    "wikidata": "Q142",
    "wikipedia": "fr:France",
    "id": "node/1363947712"
  },
  "geometry": {
    "type": "Point",
    "coordinates": [
      1.8883335,
      46.603354
    ]
  }
}
]
}
